[{"OBJECT_NAME":"TISAT 1","OBJECT_ID":"2010-035E","EPOCH":"2026-03-09T18:10:07.877568","MEAN_MOTION":15.27628633,"ECCENTRICITY":0.00013432,"INCLINATION":98.0645,"RA_OF_ASC_NODE":6.8512,"ARG_OF_PERICENTER":159.303,"MEAN_ANOMALY":200.8262,"EPHEMERIS_TYPE":0,"CLASSIFICATION_TYPE":"U","NORAD_CAT_ID":36799,"ELEMENT_SET_NO":999,"REV_AT_EPOCH":85250,"BSTAR":0.00091004793,"MEAN_MOTION_DOT":0.00024554,"MEAN_MOTION_DDOT":0},{"OBJECT_NAME":"STARLINK-31556","OBJECT_ID":"2024-074L","EPOCH":"2026-03-09T02:37:08.523552","MEAN_MOTION":15.27569985,"ECCENTRICITY":8.789e-5,"INCLINATION":43.0011,"RA_OF_ASC_NODE":346.9695,"ARG_OF_PERICENTER":292.0056,"MEAN_ANOMALY":68.0702,"EPHEMERIS_TYPE":0,"CLASSIFICATION_TYPE":"U","NORAD_CAT_ID":59544,"ELEMENT_SET_NO":999,"REV_AT_EPOCH":10592,"BSTAR":-3.0405626e-5,"MEAN_MOTION_DOT":-1.098e-5,"MEAN_MOTION_DDOT":0}]
