TISAT 1                 
1 36799U 10035E   26068.75703561  .00024554  00000+0  91005-3 0  9996
2 36799  98.0645   6.8512 0001343 159.3030 200.8262 15.27628633852505
STARLINK-31556          
1 59544U 24074L   26068.10912643 -.00001098  00000+0 -30406-4 0  9998
2 59544  43.0011 346.9695 0000878 292.0056  68.0702 15.27569985105924
